$$SOE
2460728.500000000, A.D. 2025-Feb-22 00:00:00.0000, 2.253433329773978E+08, -4.448804134466393E+08, 4.064835342165075E+07,
2460735.500000000, A.D. 2025-Mar-01 00:00:00.0000, 2.336986121570354E+08, -4.404425969257710E+08, 3.913793220033239E+07,
2460742.500000000, A.D. 2025-Mar-08 00:00:00.0000, 2.419632120515776E+08, -4.358339337718459E+08, 3.761232289222513E+07,
2460749.500000000, A.D. 2025-Mar-15 00:00:00.0000, 2.501338033521511E+08, -4.310559824190590E+08, 3.607209753980038E+07,
2460756.500000000, A.D. 2025-Mar-22 00:00:00.0000, 2.582070771820970E+08, -4.261103589341306E+08, 3.451783480284715E+07,
2460763.500000000, A.D. 2025-Mar-29 00:00:00.0000, 2.661797450676489E+08, -4.209987388734777E+08, 3.295011981027019E+07,
2460770.500000000, A.D. 2025-Apr-05 00:00:00.0000, 2.740485406185066E+08, -4.157228582549286E+08, 3.136954392758669E+07,
2460777.500000000, A.D. 2025-Apr-12 00:00:00.0000, 2.818102209933141E+08, -4.102845135395942E+08, 2.977670462494721E+07,
2460784.500000000, A.D. 2025-Apr-19 00:00:00.0000, 2.894615679634992E+08, -4.046855615045484E+08, 2.817220539044787E+07,
2460791.500000000, A.D. 2025-Apr-26 00:00:00.0000, 2.969993888477467E+08, -3.989279192084129E+08, 2.655665564683117E+07,
2460798.500000000, A.D. 2025-May-03 00:00:00.0000, 3.044205174313877E+08, -3.930135640296922E+08, 2.493067066235304E+07,
2460805.500000000, A.D. 2025-May-10 00:00:00.0000, 3.117218148997822E+08, -3.869445337681893E+08, 2.329487145355615E+07,
2460812.500000000, A.D. 2025-May-17 00:00:00.0000, 3.189001708227999E+08, -3.807229268493571E+08, 2.164988467287268E+07,
2460819.500000000, A.D. 2025-May-24 00:00:00.0000, 3.259525043648263E+08, -3.743509026847265E+08, 1.999634246034253E+07,
2460826.500000000, A.D. 2025-May-31 00:00:00.0000, 3.328757661389211E+08, -3.678306818764362E+08, 1.833488224637194E+07,
2460833.500000000, A.D. 2025-Jun-07 00:00:00.0000, 3.396669403048716E+08, -3.611645450608702E+08, 1.666614664072041E+07,
2460840.500000000, A.D. 2025-Jun-14 00:00:00.0000, 3.463230445460492E+08, -3.543548310579237E+08, 1.499078356991504E+07,
2460847.500000000, A.D. 2025-Jun-21 00:00:00.0000, 3.528411291402571E+08, -3.474039375950166E+08, 1.330944628367060E+07,
2460854.500000000, A.D. 2025-Jun-28 00:00:00.0000, 3.592182782523553E+08, -3.403143228377989E+08, 1.162279308717388E+07,
2460861.500000000, A.D. 2025-Jul-05 00:00:00.0000, 3.654516119332027E+08, -3.330885055687121E+08, 9.931487114449412E+06,
2460868.500000000, A.D. 2025-Jul-12 00:00:00.0000, 3.715382876356849E+08, -3.257290648175809E+08, 8.236196186255738E+06,
2460875.500000000, A.D. 2025-Jul-19 00:00:00.0000, 3.774755014389312E+08, -3.182386395188718E+08, 6.537592688182771E+06,
2460882.500000000, A.D. 2025-Jul-26 00:00:00.0000, 3.832604891915838E+08, -3.106199282521245E+08, 4.836353445094675E+06,
2460889.500000000, A.D. 2025-Aug-02 00:00:00.0000, 3.888905276396365E+08, -3.028756890437194E+08, 3.133159587651074E+06,
2460896.500000000, A.D. 2025-Aug-09 00:00:00.0000, 3.943629355616395E+08, -2.950087392438535E+08, 1.428696407461733E+06,
2460903.500000000, A.D. 2025-Aug-16 00:00:00.0000, 3.996750749870457E+08, -2.870219555403196E+08, -2.763468114869595E+05,
2460910.500000000, A.D. 2025-Aug-23 00:00:00.0000, 4.048243527892197E+08, -2.789182740900111E+08, -1.981277010719597E+06,
2460917.500000000, A.D. 2025-Aug-30 00:00:00.0000, 4.098082229820313E+08, -2.707006900513187E+08, -3.685397596218765E+06,
2460924.500000000, A.D. 2025-Sep-06 00:00:00.0000, 4.146241883029317E+08, -2.623722555155330E+08, -5.388008486394793E+06,
2460931.500000000, A.D. 2025-Sep-13 00:00:00.0000, 4.192697994119697E+08, -2.539360783192467E+08, -7.088406018628284E+06,
2460938.500000000, A.D. 2025-Sep-20 00:00:00.0000, 4.237426549789914E+08, -2.453953233801370E+08, -8.785883149030462E+06,
2460945.500000000, A.D. 2025-Sep-27 00:00:00.0000, 4.280404037174404E+08, -2.367532134420887E+08, -1.047972978822216E+07,
2460952.500000000, A.D. 2025-Oct-04 00:00:00.0000, 4.321607463486801E+08, -2.280130286889063E+08, -1.216923304406410E+07,
2460959.500000000, A.D. 2025-Oct-11 00:00:00.0000, 4.361014371233948E+08, -2.191781061684466E+08, -1.385367741419740E+07,
2460966.500000000, A.D. 2025-Oct-18 00:00:00.0000, 4.398602851834950E+08, -2.102518393001959E+08, -1.553234497699974E+07,
2460973.500000000, A.D. 2025-Oct-25 00:00:00.0000, 4.434351559036064E+08, -2.012376774536407E+08, -1.720451559309098E+07,
2460980.500000000, A.D. 2025-Nov-01 00:00:00.0000, 4.468239722510052E+08, -1.921391255801681E+08, -1.886946712003431E+07,
2460987.500000000, A.D. 2025-Nov-08 00:00:00.0000, 4.500247161977569E+08, -1.829597439280899E+08, -2.052647564632366E+07,
2460994.500000000, A.D. 2025-Nov-15 00:00:00.0000, 4.530354303315928E+08, -1.737031478973503E+08, -2.217481576340166E+07,
2461001.500000000, A.D. 2025-Nov-22 00:00:00.0000, 4.558542200665423E+08, -1.643730078111577E+08, -2.381376089502936E+07,
2461008.500000000, A.D. 2025-Nov-29 00:00:00.0000, 4.584792562994615E+08, -1.549730474664828E+08, -2.544258357748513E+07,
2461015.500000000, A.D. 2025-Dec-06 00:00:00.0000, 4.609087762357345E+08, -1.455070415976836E+08, -2.706055549311870E+07,
2461022.500000000, A.D. 2025-Dec-13 00:00:00.0000, 4.631410828170455E+08, -1.359788156227993E+08, -2.866694757285298E+07,
2461029.500000000, A.D. 2025-Dec-20 00:00:00.0000, 4.651745462418541E+08, -1.263922466471408E+08, -3.026103040469434E+07,
2461036.500000000, A.D. 2025-Dec-27 00:00:00.0000, 4.670076065032216E+08, -1.167512631299173E+08, -3.184207463813308E+07,
2461043.500000000, A.D. 2026-Jan-03 00:00:00.0000, 4.686387754840848E+08, -1.070598438269913E+08, -3.340935130100562E+07,
2461050.500000000, A.D. 2026-Jan-10 00:00:00.0000, 4.700666387188826E+08, -9.732201668634191E+07, -3.496213209445136E+07,
2461057.500000000, A.D. 2026-Jan-17 00:00:00.0000, 4.712898570530589E+08, -8.754185778535679E+07, -3.649968969483593E+07,
2461064.500000000, A.D. 2026-Jan-24 00:00:00.0000, 4.723071682773151E+08, -7.772349028482997E+07, -3.802129806797877E+07,
2461071.500000000, A.D. 2026-Jan-31 00:00:00.0000, 4.731173887589633E+08, -6.787108340482673E+07, -3.952623279849230E+07,
2461078.500000000, A.D. 2026-Feb-07 00:00:00.0000, 4.737194151304414E+08, -5.798885147796895E+07, -4.101377144460946E+07,
2461085.500000000, A.D. 2026-Feb-14 00:00:00.0000, 4.741122262854170E+08, -4.808105309403612E+07, -4.248319394293942E+07,
2461092.500000000, A.D. 2026-Feb-21 00:00:00.0000, 4.742948860658145E+08, -3.815198975683081E+07, -4.393378305128116E+07,
2461099.500000000, A.D. 2026-Feb-28 00:00:00.0000, 4.742665455512403E+08, -2.820600289647888E+07, -4.536482463530358E+07,
2461106.500000000, A.D. 2026-Mar-07 00:00:00.0000, 4.740264428908647E+08, -1.824747118445971E+07, -4.677560776943505E+07,
2461113.500000000, A.D. 2026-Mar-14 00:00:00.0000, 4.735739034512836E+08, -8.280810482608756E+06, -4.816542509708514E+07,
2461120.500000000, A.D. 2026-Mar-21 00:00:00.0000, 4.729083420602019E+08, 1.689526474257305E+06, -4.953357337664329E+07,
2461127.500000000, A.D. 2026-Mar-28 00:00:00.0000, 4.720292653351882E+08, 1.165905169295597E+07, -5.087935394475210E+07,
2461134.500000000, A.D. 2026-Apr-04 00:00:00.0000, 4.709362734928998E+08, 2.162324386908216E+07, -5.220207312035932E+07,
2461141.500000000, A.D. 2026-Apr-11 00:00:00.0000, 4.696290619109122E+08, 3.157755030703520E+07, -5.350104260395938E+07,
2461148.500000000, A.D. 2026-Apr-18 00:00:00.0000, 4.681074225988168E+08, 4.151738880657463E+07, -5.477557988691149E+07,
2461155.500000000, A.D. 2026-Apr-25 00:00:00.0000, 4.663712456214545E+08, 5.143814953119014E+07, -5.602500867346624E+07,
2461162.500000000, A.D. 2026-May-02 00:00:00.0000, 4.644205205020343E+08, 6.133519682939983E+07, -5.724865932034056E+07,
2461169.500000000, A.D. 2026-May-09 00:00:00.0000, 4.622553377269078E+08, 7.120387094332573E+07, -5.844586931031885E+07,
2461176.500000000, A.D. 2026-May-16 00:00:00.0000, 4.598758907265689E+08, 8.103948974295340E+07, -5.961598378284661E+07,
2461183.500000000, A.D. 2026-May-23 00:00:00.0000, 4.572824783799245E+08, 9.083735150878797E+07, -6.075835604217480E+07,
2461190.500000000, A.D. 2026-May-30 00:00:00.0000, 4.544755059595068E+08, 1.005927390843322E+08, -6.187234782572395E+07,
2461197.500000000, A.D. 2026-Jun-06 00:00:00.0000, 4.514554841992345E+08, 1.103009221257313E+08, -6.295732957117651E+07,
2461204.500000000, A.D. 2026-Jun-13 00:00:00.0000, 4.482230301475979E+08, 1.199571576462154E+08, -6.401268100225113E+07,
2461211.500000000, A.D. 2026-Jun-20 00:00:00.0000, 4.447788692999461E+08, 1.295566917809744E+08, -6.503779174760542E+07,
2461218.500000000, A.D. 2026-Jun-27 00:00:00.0000, 4.411238373072493E+08, 1.390947624328310E+08, -6.603206186453579E+07,
2461225.500000000, A.D. 2026-Jul-04 00:00:00.0000, 4.372588812576090E+08, 1.485666020236515E+08, -6.699490233061042E+07,
2461232.500000000, A.D. 2026-Jul-11 00:00:00.0000, 4.331850607807016E+08, 1.579674402190362E+08, -6.792573553710440E+07,
2461239.500000000, A.D. 2026-Jul-18 00:00:00.0000, 4.289035490639667E+08, 1.672925066512694E+08, -6.882399579037686E+07,
2461246.500000000, A.D. 2026-Jul-25 00:00:00.0000, 4.244156338010121E+08, 1.765370336423603E+08, -6.968912982288234E+07,
2461253.500000000, A.D. 2026-Aug-01 00:00:00.0000, 4.197227181164682E+08, 1.856962588780547E+08, -7.052059732180342E+07,
2461260.500000000, A.D. 2026-Aug-08 00:00:00.0000, 4.148263216785451E+08, 1.947654279956171E+08, -7.131787149759659E+07,
2461267.500000000, A.D. 2026-Aug-15 00:00:00.0000, 4.097280824103482E+08, 2.037397975335102E+08, -7.208043969322422E+07,
2461274.500000000, A.D. 2026-Aug-22 00:00:00.0000, 4.044297580330994E+08, 2.126146394616669E+08, -7.280780386340377E+07,
2461281.500000000, A.D. 2026-Aug-29 00:00:00.0000, 3.989332251469930E+08, 2.213852459192578E+08, -7.349948082510605E+07,
2461288.500000000, A.D. 2026-Sep-05 00:00:00.0000, 3.932404779816778E+08, 2.300469312911470E+08, -7.415500270933351E+07,
2461295.500000000, A.D. 2026-Sep-12 00:00:00.0000, 3.873536292680706E+08, 2.385950341150564E+08, -7.477391763488699E+07,
$$EOE